ONEWEB-0558             
1 56059U 23043P   25133.08434671  .00000090  00000+0  18587-3 0  9994
2 56059  87.9246 323.7803 0001512 103.4004 256.7299 13.21826939106292
ONEWEB-0559             
1 56060U 23043Q   25132.92189685 -.00000278  00000+0 -70509-3 0  9992
2 56060  87.9245 323.8056 0001377  87.6079 272.5212 13.21825458105372
ONEWEB-0568             
1 56062U 23043S   25132.88694662  .00000016  00000+0  84017-5 0  9994
2 56062  87.9020 308.5521 0002085  91.9225 268.2144 13.16593079106305
ONEWEB-0574             
1 56063U 23043T   25132.90929192  .00000019  00000+0  13408-4 0  9995
2 56063  87.9243 323.7959 0001856  82.4299 277.7045 13.21823804105399
ONEWEB-0575             
1 56064U 23043U   25132.88061433  .00000022  00000+0  23750-4 0  9993
2 56064  87.9017 308.5661 0002037  80.2039 279.9322 13.16593159106293
ONEWEB-0577             
1 56066U 23043W   25133.01994386  .00000030  00000+0  43742-4 0  9995
2 56066  87.9013 308.5288 0002117  74.2424 285.8940 13.16593068107243
